INTELSAT 36 (IS-36)     
1 41747U 16053A   21026.45156301 -.00000014  00000-0  00000-0 0  9990
2 41747   0.0095  32.4119 0001577 327.3546 357.2193  1.00271625 16235
INTELSAT 33E (IS-33E)   
1 41748U 16053B   21026.52161355  .00000060  00000-0  00000-0 0  9994
2 41748   0.0143  29.2183 0001950 267.2805  77.2886  1.00272553 16510
INSAT-3DR               
1 41752U 16054A   21026.55743868 -.00000067  00000-0  00000-0 0  9996
2 41752   0.1045  97.3455 0013057 175.1315 128.2603  1.00272781 16077
GSAT-18                 
1 41793U 16060A   21026.55743868 -.00000066  00000-0  00000-0 0  9997
2 41793   0.0765  98.5035 0001266 108.2307 193.9741  1.00271707 15803
SKY MUSTER 2 (NBN1B)    
1 41794U 16060B   21026.56924515 -.00000234  00000-0  00000-0 0  9996
2 41794   0.0123   1.2370 0001810 300.0435 174.5022  1.00271651 15786
HIMAWARI-9              
1 41836U 16064A   21026.53775221 -.00000264  00000-0  00000-0 0  9995
2 41836   0.0491 254.4455 0001192  87.6772 118.2522  1.00272325 15466
SHIJIAN-17 (SJ-17)      
1 41838U 16065A   21026.75859521 -.00000353  00000-0  00000+0 0  9996
2 41838   0.7771  94.0061 0005797 325.6581  97.1962  1.00272257 15507
GOES 16                 
1 41866U 16071A   21026.49465762 -.00000237  00000-0  00000-0 0  9997
2 41866   0.0416 238.0894 0001626  88.2516 262.5152  1.00271523 15388
TIANLIAN 1-04           
1 41869U 16072A   21026.54490557  .00000042  00000-0  00000-0 0  9990
2 41869   0.1550 264.9001 0017418 186.6731  47.3750  1.00274259 15581
WGS F8 (USA 272)        
1 41879U 16075A   21026.56924515 -.00000192  00000-0  00000-0 0  9999
2 41879   0.0184  60.2790 0000226 359.3136  61.2095  1.00270460 15119
FENGYUN 4A              
1 41882U 16077A   21026.61455226 -.00000320  00000-0  00000-0 0  9992
2 41882   0.0594  78.1265 0004646 347.3601  26.5127  1.00274450 15255
ECHOSTAR 19             
1 41893U 16079A   21026.41850053 -.00000128  00000-0  00000+0 0  9996
2 41893   0.0173  66.9490 0001698 236.4981 236.0239  1.00271934 15007
JCSAT-15                
1 41903U 16082A   21026.02907885 -.00000339  00000-0  00000-0 0  9990
2 41903   0.0162  69.1747 0001687 239.5945 297.2875  1.00270460 15029
STAR ONE D1             
1 41904U 16082B   21026.06222854 -.00000199  00000-0  00000-0 0  9995
2 41904   0.0034 320.9200 0001756 342.3753 120.6677  1.00271485 15035
TJS-2                   
1 41911U 17001A   21026.53112228 -.00000332  00000-0  00000-0 0  9999
2 41911   0.1901 283.8484 0008405  38.1550 102.7358  1.00272803 15000
SBIRS GEO-4 (USA 273)   
1 41937U 17004A   21026.54961632  .00000146  00000-0  00000-0 0  9994
2 41937   3.3442 312.6320 0001904 347.4840 224.4198  1.00270125 14871
HISPASAT 36W-1          
1 41942U 17006A   21026.43071359 -.00000233  00000-0  00000-0 0  9996
2 41942   0.0109 329.7638 0001060 336.0819 299.1445  1.00271226 14502
TELKOM 3S               
1 41944U 17007A   21026.61317722 -.00000352  00000-0  00000-0 0  9998
2 41944   0.0170  55.6251 0002470 246.7157 162.5094  1.00270924 14413
INTELSAT 32E (IS-32E)   
1 41945U 17007B   21026.50102584 -.00000258  00000-0  00000-0 0  9990
2 41945   0.0171  62.2177 0000370 188.3293  12.6349  1.00269785 14506
ECHOSTAR 23             
1 42070U 17014A   21026.42434536 -.00000259  00000-0  00000-0 0  9995
2 42070   0.0292  81.1017 0002020 224.1023 265.5952  1.00270360 14204
WGS F9 (USA 275)        
1 42075U 17016A   21026.52100292  .00000084  00000-0  00000-0 0  9997
2 42075   0.0097  51.3821 0000236 238.4226  80.5338  1.00272236 14177
SES-10                  
1 42432U 17017A   21026.42451983 -.00000261  00000-0  00000-0 0  9998
2 42432   0.0114  66.6795 0003034 238.1201 267.0483  1.00272231 14013
CHINASAT 16 (SJ-13)     
1 42662U 17018A   21026.64824466 -.00000342  00000-0  00000-0 0  9998
2 42662   0.0418  75.8146 0006451 174.3833 219.8183  1.00269430 14014
KOREASAT 7              
1 42691U 17023A   21026.38918924 -.00000351  00000-0  00000-0 0  9990
2 42691   0.0274  63.4371 0001007 218.6839  99.7623  1.00270782 13643
SGDC                    
1 42692U 17023B   21025.85960651 -.00000237  00000-0  00000-0 0  9999
2 42692   0.0116  38.4579 0002548 268.6659  52.8370  1.00272655 13692
GSAT-9                  
1 42695U 17024A   21026.52902861 -.00000276  00000-0  00000-0 0  9990
2 42695   0.0698 102.4325 0002174 201.5922 109.7471  1.00271329 13573
INMARSAT 5-F4           
1 42698U 17025A   21026.21021431  .00000086  00000-0  00000-0 0  9993
2 42698   0.0171  62.3145 0000388 260.7000 294.8611  1.00270336 13530
SES-15                  
1 42709U 17026A   21026.41213230  .00000070  00000-0  00000+0 0  9991
2 42709   0.0113  40.8222 0001114 273.9944 190.3012  1.00275610 14454
QZS-2 (MICHIBIKI-2)     
1 42738U 17028A   21026.53609473 -.00000103  00000-0  00000-0 0  9995
2 42738  42.6175 271.2991 0752077 269.8463 278.9478  1.00276593 13415
VIASAT-2                
1 42740U 17029A   21026.42390918 -.00000254  00000-0  00000-0 0  9995
2 42740   0.0094 344.9513 0000427 322.3361 261.3230  1.00272072 13455
EUTELSAT 172B           
1 42741U 17029B   21026.47215071  .00000005  00000-0  00000-0 0  9990
2 42741   0.0088  98.5224 0000257 190.1237 179.2837  1.00271848 13993
GSAT-19                 
1 42747U 17031A   21026.59358189  .00000136  00000-0  00000-0 0  9995
2 42747   0.0190  86.6146 0003134 315.8490 345.1574  1.00270491 13409
ECHOSTAR 21             
1 42749U 17032A   21026.36816535  .00000084  00000-0  00000-0 0  9999
2 42749   5.0461 311.7481 0002163 352.9219 323.9741  1.00271983 13376
CHINASAT 9A (ZX 9A)     
1 42763U 17035A   21026.61591250 -.00000302  00000-0  00000-0 0  9994
2 42763   0.0430 109.8757 0000950 211.0282 128.2996  1.00268018 13926
BULGARIASAT-1           
1 42801U 17038A   21026.22291733  .00000022  00000-0  00000-0 0  9998
2 42801   0.0187  72.3495 0002523 234.0994 261.3966  1.00271487 13092
HELLAS-SAT 3            
1 42814U 17040A   21026.51742623  .00000163  00000-0  00000-0 0  9992
2 42814   0.0455   9.9727 0004244 329.5863  11.7290  1.00275341 13107
GSAT-17                 
1 42815U 17040B   21026.55188152 -.00000247  00000-0  00000-0 0  9992
2 42815   0.0624 268.9629 0005954   0.7066 148.5340  1.00270205 13059
INTELSAT 35E (IS-35E)   
1 42818U 17041A   21026.43097531 -.00000227  00000-0  00000-0 0  9991
2 42818   0.0429 232.4397 0002076  75.4408 298.6793  1.00269679 13146
COSMOS 2520             
1 42907U 17046A   21026.51864753  .00000147  00000-0  00000-0 0  9992
2 42907   0.0275 109.0082 0000143 191.1347  57.5779  1.00273634 12663
TDRS 13                 
1 42915U 17047A   21026.27532931 -.00000081  00000-0  00000-0 0  9993
2 42915   5.2317 330.5796 0013370  90.3471 152.4308  1.00272225 12616
QZS-3 (MICHIBIKI-3)     
1 42917U 17048A   21026.53496066 -.00000337  00000-0  00000-0 0  9997
2 42917   0.0679 232.0219 0002755  87.3625 126.2330  1.00274314 12525
AMAZONAS 5              
1 42934U 17053A   21026.56600014 -.00000271  00000-0  00000-0 0  9992
2 42934   0.0374 325.8018 0004765 352.2111 310.7985  1.00270543 12358
ASIASAT 9               
1 42942U 17057A   21025.02660642 -.00000347  00000-0  00000-0 0  9992
2 42942   0.0297  53.0139 0002580 245.4508 317.7526  1.00271408 12192
INTELSAT 37E (IS-37E)   
1 42950U 17059A   21026.43429028 -.00000130  00000-0  00000-0 0  9990
2 42950   0.0110  57.2534 0002785 237.6454 329.3783  1.00269169 12320
BSAT-4A                 
1 42951U 17059B   21026.61635860 -.00000340  00000-0  00000-0 0  9997
2 42951   0.0518  50.9401 0002985 311.1178  95.7754  1.00272119 12072
QZS-4 (MICHIBIKI-4)     
1 42965U 17062A   21025.81744421 -.00000304  00000-0  00000-0 0  9991
2 42965  40.8301   8.6777 0751417 268.8181 278.9390  1.00297126 12074
SES-11 (ECHOSTAR 105)   
1 42967U 17063A   21026.48757429 -.00000078  00000-0  00000-0 0  9998
2 42967   0.0128  95.0559 0002871 200.0360 261.4563  1.00271967 12051
KOREASAT 5A             
1 42984U 17067A   21026.53216911 -.00000348  00000-0  00000-0 0  9993
2 42984   0.0185  97.5830 0001178 147.3649 185.7974  1.00271001 11809
ALCOMSAT 1              
1 43039U 17078A   21026.43289449 -.00000175  00000-0  00000+0 0  9999
2 43039   0.0575 238.3981 0002023  67.7183 310.8405  1.00270120 11546
SBIRS GEO-3 (USA 282)   
1 43162U 18009A   21026.53740326 -.00000273  00000-0  00000-0 0  9998
2 43162   4.5243 317.0454 0002088 343.5347 157.9124  1.00271620 11119
AL YAH 3                
1 43174U 18012A   21026.43385410 -.00000145  00000-0  00000-0 0  9991
2 43174   0.0178  67.7466 0002328 246.7330 307.5329  1.00268608 11128
SES-14                  
1 43175U 18012B   21026.50015348 -.00000267  00000-0  00000-0 0  9995
2 43175   0.0148  50.2538 0001238 247.4327 320.8527  1.00271247 11330
GOES 17                 
1 43226U 18022A   21026.48227010  .00000109  00000-0  00000-0 0  9995
2 43226   0.0604 238.3013 0000718  74.4249 209.6236  1.00270813 10680
HISPASAT 30W-6          
1 43228U 18023A   21026.43184767 -.00000205  00000-0  00000+0 0  9991
2 43228   0.0393  48.6028 0004142 290.8264 271.9649  1.00272175 10763
SUPERBIRD 8             
1 43271U 18033A   21026.54193955 -.00000082  00000-0  00000-0 0  9995
2 43271   0.0135 113.3111 0001379 181.1842 188.6257  1.00270676 10326
HYLAS 4                 
1 43272U 18033B   21026.50268333 -.00000223  00000-0  00000-0 0  9992
2 43272   0.0675 118.0865 0002090  87.7731  67.5765  1.00271026 10355
IRNSS-1I                
1 43286U 18035A   21025.80270132  .00000081  00000-0  00000-0 0  9992
2 43286  28.7891 105.7092 0021849 184.2168 179.3620  1.00272018 10345
USA 283                 
1 43339U 18036A   21026.57265556 -.00000306  00000-0  00000+0 0  9991
2 43339   0.0223  52.4474 0000886 257.9822 155.8788  1.00273374  5581
COSMOS 2526             
1 43432U 18037A   21026.62202175 -.00000334  00000-0  00000-0 0  9992
2 43432   0.0361 118.1387 0000441 196.2330 163.7179  1.00269901 10238
